CCSDS_OMM_VERS = 2.0
CREATION_DATE  = 
ORIGINATOR     = 

OBJECT_NAME    = KUIPER-00191
OBJECT_ID      = 2025-301L
CENTER_NAME    = EARTH
REF_FRAME      = TEME
TIME_SYSTEM    = UTC
MEAN_ELEMENT_THEORY = SGP/SGP4

EPOCH          = 2026-01-12T07:07:55.387776
MEAN_MOTION    = 15.35926035
ECCENTRICITY   = .00065307
INCLINATION    = 51.8705
RA_OF_ASC_NODE = 337.7944
ARG_OF_PERICENTER = 183.7350
MEAN_ANOMALY   = 176.3589

EPHEMERIS_TYPE = 0
CLASSIFICATION_TYPE = U
NORAD_CAT_ID   = 67143
ELEMENT_SET_NO = 999
REV_AT_EPOCH   = 509
BSTAR          = .88181998E-3
MEAN_MOTION_DOT = .31074E-3
MEAN_MOTION_DDOT = 0

CCSDS_OMM_VERS = 2.0
CREATION_DATE  = 
ORIGINATOR     = 

OBJECT_NAME    = KUIPER-00196
OBJECT_ID      = 2025-301M
CENTER_NAME    = EARTH
REF_FRAME      = TEME
TIME_SYSTEM    = UTC
MEAN_ELEMENT_THEORY = SGP/SGP4

EPOCH          = 2026-01-12T03:39:53.032896
MEAN_MOTION    = 15.36606391
ECCENTRICITY   = .00037907
INCLINATION    = 51.8750
RA_OF_ASC_NODE = 338.3328
ARG_OF_PERICENTER = 144.1943
MEAN_ANOMALY   = 215.9298

EPHEMERIS_TYPE = 0
CLASSIFICATION_TYPE = U
NORAD_CAT_ID   = 67144
ELEMENT_SET_NO = 999
REV_AT_EPOCH   = 504
BSTAR          = .60158798E-3
MEAN_MOTION_DOT = .21512E-3
MEAN_MOTION_DDOT = 0

CCSDS_OMM_VERS = 2.0
CREATION_DATE  = 
ORIGINATOR     = 

OBJECT_NAME    = KUIPER-00204
OBJECT_ID      = 2025-301N
CENTER_NAME    = EARTH
REF_FRAME      = TEME
TIME_SYSTEM    = UTC
MEAN_ELEMENT_THEORY = SGP/SGP4

EPOCH          = 2026-01-12T06:00:02.000160
MEAN_MOTION    = 15.25967531
ECCENTRICITY   = .00043593
INCLINATION    = 51.8809
RA_OF_ASC_NODE = 338.1086
ARG_OF_PERICENTER = 111.2239
MEAN_ANOMALY   = 282.0038

EPHEMERIS_TYPE = 0
CLASSIFICATION_TYPE = U
NORAD_CAT_ID   = 67145
ELEMENT_SET_NO = 999
REV_AT_EPOCH   = 516
BSTAR          = -.72542231E-1
MEAN_MOTION_DOT = -.1708286E-1
MEAN_MOTION_DDOT = 0

CCSDS_OMM_VERS = 2.0
CREATION_DATE  = 
ORIGINATOR     = 

OBJECT_NAME    = KUIPER-00210
OBJECT_ID      = 2025-301P
CENTER_NAME    = EARTH
REF_FRAME      = TEME
TIME_SYSTEM    = UTC
MEAN_ELEMENT_THEORY = SGP/SGP4

EPOCH          = 2026-01-11T22:10:22.595232
MEAN_MOTION    = 15.34845751
ECCENTRICITY   = .00112284
INCLINATION    = 51.8611
RA_OF_ASC_NODE = 339.7720
ARG_OF_PERICENTER = 194.3333
MEAN_ANOMALY   = 165.7336

EPHEMERIS_TYPE = 0
CLASSIFICATION_TYPE = U
NORAD_CAT_ID   = 67146
ELEMENT_SET_NO = 999
REV_AT_EPOCH   = 517
BSTAR          = .42009787E-3
MEAN_MOTION_DOT = .1408E-3
MEAN_MOTION_DDOT = 0

CCSDS_OMM_VERS = 2.0
CREATION_DATE  = 
ORIGINATOR     = 

OBJECT_NAME    = KUIPER-00221
OBJECT_ID      = 2025-301Q
CENTER_NAME    = EARTH
REF_FRAME      = TEME
TIME_SYSTEM    = UTC
MEAN_ELEMENT_THEORY = SGP/SGP4

EPOCH          = 2026-01-12T06:00:02.000160
MEAN_MOTION    = 15.35311194
ECCENTRICITY   = .00043556
INCLINATION    = 51.8736
RA_OF_ASC_NODE = 337.9333
ARG_OF_PERICENTER = 161.8179
MEAN_ANOMALY   = 344.4277

EPHEMERIS_TYPE = 0
CLASSIFICATION_TYPE = U
NORAD_CAT_ID   = 67147
ELEMENT_SET_NO = 999
REV_AT_EPOCH   = 454
BSTAR          = -.29444543E-1
MEAN_MOTION_DOT = -.93895E-2
MEAN_MOTION_DDOT = 0

CCSDS_OMM_VERS = 2.0
CREATION_DATE  = 
ORIGINATOR     = 

OBJECT_NAME    = KUIPER-00232
OBJECT_ID      = 2025-301R
CENTER_NAME    = EARTH
REF_FRAME      = TEME
TIME_SYSTEM    = UTC
MEAN_ELEMENT_THEORY = SGP/SGP4

EPOCH          = 2026-01-12T06:30:17.704800
MEAN_MOTION    = 15.37205892
ECCENTRICITY   = .00027342
INCLINATION    = 51.8749
RA_OF_ASC_NODE = 337.6281
ARG_OF_PERICENTER = 90.9514
MEAN_ANOMALY   = 269.1786

EPHEMERIS_TYPE = 0
CLASSIFICATION_TYPE = U
NORAD_CAT_ID   = 67148
ELEMENT_SET_NO = 999
REV_AT_EPOCH   = 506
BSTAR          = .24755748E-3
MEAN_MOTION_DOT = .8781E-4
MEAN_MOTION_DDOT = 0

CCSDS_OMM_VERS = 2.0
CREATION_DATE  = 
ORIGINATOR     = 

OBJECT_NAME    = KUIPER-00241
OBJECT_ID      = 2025-301S
CENTER_NAME    = EARTH
REF_FRAME      = TEME
TIME_SYSTEM    = UTC
MEAN_ELEMENT_THEORY = SGP/SGP4

EPOCH          = 2026-01-12T06:41:25.837728
MEAN_MOTION    = 15.36846846
ECCENTRICITY   = .00021431
INCLINATION    = 51.8752
RA_OF_ASC_NODE = 337.6778
ARG_OF_PERICENTER = 125.5785
MEAN_ANOMALY   = 234.5402

EPHEMERIS_TYPE = 0
CLASSIFICATION_TYPE = U
NORAD_CAT_ID   = 67149
ELEMENT_SET_NO = 999
REV_AT_EPOCH   = 539
BSTAR          = .11873937E-2
MEAN_MOTION_DOT = .43294E-3
MEAN_MOTION_DDOT = 0

CCSDS_OMM_VERS = 2.0
CREATION_DATE  = 
ORIGINATOR     = 

OBJECT_NAME    = KUIPER-00245
OBJECT_ID      = 2025-301T
CENTER_NAME    = EARTH
REF_FRAME      = TEME
TIME_SYSTEM    = UTC
MEAN_ELEMENT_THEORY = SGP/SGP4

EPOCH          = 2026-01-12T06:00:02.000160
MEAN_MOTION    = 15.25415826
ECCENTRICITY   = .00075045
INCLINATION    = 51.8770
RA_OF_ASC_NODE = 338.2101
ARG_OF_PERICENTER = 177.8093
MEAN_ANOMALY   = 168.9724

EPHEMERIS_TYPE = 0
CLASSIFICATION_TYPE = U
NORAD_CAT_ID   = 67150
ELEMENT_SET_NO = 999
REV_AT_EPOCH   = 454
BSTAR          = -.4168279E-1
MEAN_MOTION_DOT = -.986574E-2
MEAN_MOTION_DDOT = 0

CCSDS_OMM_VERS = 2.0
CREATION_DATE  = 
ORIGINATOR     = 

OBJECT_NAME    = KUIPER-00246
OBJECT_ID      = 2025-301U
CENTER_NAME    = EARTH
REF_FRAME      = TEME
TIME_SYSTEM    = UTC
MEAN_ELEMENT_THEORY = SGP/SGP4

EPOCH          = 2026-01-12T03:41:15.427392
MEAN_MOTION    = 15.36571200
ECCENTRICITY   = .00039204
INCLINATION    = 51.8745
RA_OF_ASC_NODE = 338.3379
ARG_OF_PERICENTER = 159.9525
MEAN_ANOMALY   = 200.1616

EPHEMERIS_TYPE = 0
CLASSIFICATION_TYPE = U
NORAD_CAT_ID   = 67151
ELEMENT_SET_NO = 999
REV_AT_EPOCH   = 506
BSTAR          = .56766919E-3
MEAN_MOTION_DOT = .20251E-3
MEAN_MOTION_DDOT = 0

CCSDS_OMM_VERS = 2.0
CREATION_DATE  = 
ORIGINATOR     = 

OBJECT_NAME    = KUIPER-00247
OBJECT_ID      = 2025-301V
CENTER_NAME    = EARTH
REF_FRAME      = TEME
TIME_SYSTEM    = UTC
MEAN_ELEMENT_THEORY = SGP/SGP4

EPOCH          = 2026-01-12T01:23:28.139712
MEAN_MOTION    = 15.34547674
ECCENTRICITY   = .0011208
INCLINATION    = 51.8638
RA_OF_ASC_NODE = 339.1761
ARG_OF_PERICENTER = 206.6273
MEAN_ANOMALY   = 153.4138

EPHEMERIS_TYPE = 0
CLASSIFICATION_TYPE = U
NORAD_CAT_ID   = 67152
ELEMENT_SET_NO = 999
REV_AT_EPOCH   = 502
BSTAR          = .52500937E-3
MEAN_MOTION_DOT = .17531E-3
MEAN_MOTION_DDOT = 0

CCSDS_OMM_VERS = 2.0
CREATION_DATE  = 
ORIGINATOR     = 

OBJECT_NAME    = KUIPER-00248
OBJECT_ID      = 2025-301W
CENTER_NAME    = EARTH
REF_FRAME      = TEME
TIME_SYSTEM    = UTC
MEAN_ELEMENT_THEORY = SGP/SGP4

EPOCH          = 2026-01-12T07:20:03.921216
MEAN_MOTION    = 15.35330022
ECCENTRICITY   = .00087725
INCLINATION    = 51.8694
RA_OF_ASC_NODE = 337.8478
ARG_OF_PERICENTER = 193.8805
MEAN_ANOMALY   = 166.1941

EPHEMERIS_TYPE = 0
CLASSIFICATION_TYPE = U
NORAD_CAT_ID   = 67153
ELEMENT_SET_NO = 999
REV_AT_EPOCH   = 523
BSTAR          = .98099573E-3
MEAN_MOTION_DOT = .33983E-3
MEAN_MOTION_DDOT = 0

CCSDS_OMM_VERS = 2.0
CREATION_DATE  = 
ORIGINATOR     = 

OBJECT_NAME    = KUIPER-00249
OBJECT_ID      = 2025-301X
CENTER_NAME    = EARTH
REF_FRAME      = TEME
TIME_SYSTEM    = UTC
MEAN_ELEMENT_THEORY = SGP/SGP4

EPOCH          = 2026-01-12T04:07:25.374144
MEAN_MOTION    = 15.35725094
ECCENTRICITY   = .00076907
INCLINATION    = 51.8678
RA_OF_ASC_NODE = 338.4470
ARG_OF_PERICENTER = 192.9231
MEAN_ANOMALY   = 167.1559

EPHEMERIS_TYPE = 0
CLASSIFICATION_TYPE = U
NORAD_CAT_ID   = 67154
ELEMENT_SET_NO = 999
REV_AT_EPOCH   = 504
BSTAR          = .15410722E-2
MEAN_MOTION_DOT = .54424E-3
MEAN_MOTION_DDOT = 0

