KUIPER-00191            
1 67143U 25301L   26012.29716884  .00031074  00000+0  88182-3 0  9992
2 67143  51.8705 337.7944 0006530 183.7350 176.3589 15.35926035  5099
KUIPER-00196            
1 67144U 25301M   26012.15269714  .00021512  00000+0  60159-3 0  9993
2 67144  51.8750 338.3328 0003790 144.1943 215.9298 15.36606391  5040
KUIPER-00204            
1 67145U 25301N   26012.25002315 -.01708286  00000+0 -72542-1 0  9997
2 67145  51.8809 338.1086 0004359 111.2239 282.0038 15.25967531  5164
KUIPER-00210            
1 67146U 25301P   26011.92387263  .00014080  00000+0  42010-3 0  9997
2 67146  51.8611 339.7720 0011228 194.3333 165.7336 15.34845751  5176
KUIPER-00221            
1 67147U 25301Q   26012.25002315 -.00938950  00000+0 -29445-1 0  9995
2 67147  51.8736 337.9333 0004355 161.8179 344.4277 15.35311194  4545
KUIPER-00232            
1 67148U 25301R   26012.27103825  .00008781  00000+0  24756-3 0  9996
2 67148  51.8749 337.6281 0002734  90.9514 269.1786 15.37205892  5068
KUIPER-00241            
1 67149U 25301S   26012.27877127  .00043294  00000+0  11874-2 0  9994
2 67149  51.8752 337.6778 0002143 125.5785 234.5402 15.36846846  5399
KUIPER-00245            
1 67150U 25301T   26012.25002315 -.00986574  00000+0 -41683-1 0  9992
2 67150  51.8770 338.2101 0007504 177.8093 168.9724 15.25415826  4547
KUIPER-00246            
1 67151U 25301U   26012.15365078  .00020251  00000+0  56767-3 0  9990
2 67151  51.8745 338.3379 0003920 159.9525 200.1616 15.36571200  5065
KUIPER-00247            
1 67152U 25301V   26012.05796458  .00017531  00000+0  52501-3 0  9999
2 67152  51.8638 339.1761 0011208 206.6273 153.4138 15.34547674  5020
KUIPER-00248            
1 67153U 25301W   26012.30560094  .00033983  00000+0  98100-3 0  9997
2 67153  51.8694 337.8478 0008772 193.8805 166.1941 15.35330022  5237
KUIPER-00249            
1 67154U 25301X   26012.17182146  .00054424  00000+0  15411-2 0  9997
2 67154  51.8678 338.4470 0007690 192.9231 167.1559 15.35725094  5042
